[{"OBJECT_NAME":"STARLINK-32906","OBJECT_ID":"2025-037D","EPOCH":"2026-03-09T22:21:33.765984","MEAN_MOTION":14.98332215,"ECCENTRICITY":0.00032932,"INCLINATION":70.0028,"RA_OF_ASC_NODE":354.027,"ARG_OF_PERICENTER":275.1513,"MEAN_ANOMALY":84.927,"EPHEMERIS_TYPE":0,"CLASSIFICATION_TYPE":"U","NORAD_CAT_ID":63080,"ELEMENT_SET_NO":999,"REV_AT_EPOCH":5863,"BSTAR":0.00086720793,"MEAN_MOTION_DOT":0.0001027,"MEAN_MOTION_DDOT":0},{"OBJECT_NAME":"CZ-2D DEB","OBJECT_ID":"2017-060E","EPOCH":"2026-03-09T23:34:37.430688","MEAN_MOTION":14.93647319,"ECCENTRICITY":0.00123991,"INCLINATION":97.5938,"RA_OF_ASC_NODE":76.1834,"ARG_OF_PERICENTER":70.348,"MEAN_ANOMALY":289.9078,"EPHEMERIS_TYPE":0,"CLASSIFICATION_TYPE":"U","NORAD_CAT_ID":44612,"ELEMENT_SET_NO":999,"REV_AT_EPOCH":45207,"BSTAR":0.00055303734,"MEAN_MOTION_DOT":5.798e-5,"MEAN_MOTION_DDOT":0}]
